{
  "type": "FeatureCollection",
  "features": [
    {
      "type": "Feature",
      "properties": {
        "norad_id": 66834,
        "name": "STARLINK-35840",
        "group": "last-30-days",
        "lat": 14.334829403657448,
        "lon": -7.48894400484379,
        "alt_km": 410.2928647552026,
        "timestamp": "2025-12-20T05:41:48.743253+00:00",
        "meta_object_name": "STARLINK-35840",
        "meta_object_id": "2025-280P",
        "meta_epoch": "2025-12-19T22:00:01.999584",
        "meta_mean_motion": 15.52472014,
        "meta_eccentricity": 0.00030934,
        "meta_inclination": 69.9996,
        "meta_ra_of_asc_node": 178.7298,
        "meta_arg_of_pericenter": 269.4911,
        "meta_mean_anomaly": 263.4077,
        "meta_ephemeris_type": 0,
        "meta_classification_type": "U",
        "meta_norad_cat_id": 66834,
        "meta_element_set_no": 999,
        "meta_rev_at_epoch": 405,
        "meta_bstar": 0.001476122,
        "meta_mean_motion_dot": 0.0009154,
        "meta_mean_motion_ddot": 0,
        "tle_line1": "1 66834U 25280P   25353.91668981  .00091540  00000+0  14761-2 0  9999",
        "tle_line2": "2 66834  69.9996 178.7298 0003093 269.4911 263.4077 15.52472014  4055"
      },
      "geometry": {
        "type": "Point",
        "coordinates": [
          -7.48894400484379,
          14.334829403657448
        ]
      }
    },
    {
      "type": "Feature",
      "properties": {
        "norad_id": 66835,
        "name": "STARLINK-35890",
        "group": "last-30-days",
        "lat": 12.5275579389465,
        "lon": -6.792832608205574,
        "alt_km": 410.4939819841211,
        "timestamp": "2025-12-20T05:41:48.743263+00:00",
        "meta_object_name": "STARLINK-35890",
        "meta_object_id": "2025-280Q",
        "meta_epoch": "2025-12-19T22:00:01.999584",
        "meta_mean_motion": 15.52472839,
        "meta_eccentricity": 0.00029345,
        "meta_inclination": 69.9995,
        "meta_ra_of_asc_node": 178.7274,
        "meta_arg_of_pericenter": 270.0451,
        "meta_mean_anomaly": 264.7808,
        "meta_ephemeris_type": 0,
        "meta_classification_type": "U",
        "meta_norad_cat_id": 66835,
        "meta_element_set_no": 999,
        "meta_rev_at_epoch": 405,
        "meta_bstar": 0.0014657778,
        "meta_mean_motion_dot": 0.00090892,
        "meta_mean_motion_ddot": 0,
        "tle_line1": "1 66835U 25280Q   25353.91668981  .00090892  00000+0  14658-2 0  9994",
        "tle_line2": "2 66835  69.9995 178.7274 0002934 270.0451 264.7808 15.52472839  4050"
      },
      "geometry": {
        "type": "Point",
        "coordinates": [
          -6.792832608205574,
          12.5275579389465
        ]
      }
    },
    {
      "type": "Feature",
      "properties": {
        "norad_id": 66836,
        "name": "STARLINK-35838",
        "group": "last-30-days",
        "lat": 10.74131665776551,
        "lon": -6.115271440859746,
        "alt_km": 410.7085725970437,
        "timestamp": "2025-12-20T05:41:48.743276+00:00",
        "meta_object_name": "STARLINK-35838",
        "meta_object_id": "2025-280R",
        "meta_epoch": "2025-12-19T22:00:01.999584",
        "meta_mean_motion": 15.52473231,
        "meta_eccentricity": 0.00030019,
        "meta_inclination": 69.9994,
        "meta_ra_of_asc_node": 178.7248,
        "meta_arg_of_pericenter": 270.1389,
        "meta_mean_anomaly": 266.5928,
        "meta_ephemeris_type": 0,
        "meta_classification_type": "U",
        "meta_norad_cat_id": 66836,
        "meta_element_set_no": 999,
        "meta_rev_at_epoch": 405,
        "meta_bstar": 0.0014621356,
        "meta_mean_motion_dot": 0.00090665,
        "meta_mean_motion_ddot": 0,
        "tle_line1": "1 66836U 25280R   25353.91668981  .00090665  00000+0  14621-2 0  9993",
        "tle_line2": "2 66836  69.9994 178.7248 0003001 270.1389 266.5928 15.52473231  4058"
      },
      "geometry": {
        "type": "Point",
        "coordinates": [
          -6.115271440859746,
          10.74131665776551
        ]
      }
    },
    {
      "type": "Feature",
      "properties": {
        "norad_id": 66837,
        "name": "STARLINK-35729",
        "group": "last-30-days",
        "lat": 8.931893338959089,
        "lon": -5.4382170445111235,
        "alt_km": 411.10153668191197,
        "timestamp": "2025-12-20T05:41:48.743287+00:00",
        "meta_object_name": "STARLINK-35729",
        "meta_object_id": "2025-280S",
        "meta_epoch": "2025-12-19T22:00:01.999584",
        "meta_mean_motion": 15.52472908,
        "meta_eccentricity": 0.00034365,
        "meta_inclination": 69.9996,
        "meta_ra_of_asc_node": 178.7215,
        "meta_arg_of_pericenter": 273.6071,
        "meta_mean_anomaly": 265.0595,
        "meta_ephemeris_type": 0,
        "meta_classification_type": "U",
        "meta_norad_cat_id": 66837,
        "meta_element_set_no": 999,
        "meta_rev_at_epoch": 405,
        "meta_bstar": 0.0014021558,
        "meta_mean_motion_dot": 0.000869,
        "meta_mean_motion_ddot": 0,
        "tle_line1": "1 66837U 25280S   25353.91668981  .00086900  00000+0  14022-2 0  9996",
        "tle_line2": "2 66837  69.9996 178.7215 0003436 273.6071 265.0595 15.52472908  4057"
      },
      "geometry": {
        "type": "Point",
        "coordinates": [
          -5.4382170445111235,
          8.931893338959089
        ]
      }
    },
    {
      "type": "Feature",
      "properties": {
        "norad_id": 66838,
        "name": "STARLINK-35886",
        "group": "last-30-days",
        "lat": 5.339521940196552,
        "lon": -4.112005320621419,
        "alt_km": 411.3078930014335,
        "timestamp": "2025-12-20T05:41:48.743297+00:00",
        "meta_object_name": "STARLINK-35886",
        "meta_object_id": "2025-280T",
        "meta_epoch": "2025-12-19T22:00:01.999584",
        "meta_mean_motion": 15.52475078,
        "meta_eccentricity": 0.00029284,
        "meta_inclination": 69.9993,
        "meta_ra_of_asc_node": 178.7169,
        "meta_arg_of_pericenter": 271.2962,
        "meta_mean_anomaly": 271.1849,
        "meta_ephemeris_type": 0,
        "meta_classification_type": "U",
        "meta_norad_cat_id": 66838,
        "meta_element_set_no": 999,
        "meta_rev_at_epoch": 405,
        "meta_bstar": 0.0015507136,
        "meta_mean_motion_dot": 0.00096241,
        "meta_mean_motion_ddot": 0,
        "tle_line1": "1 66838U 25280T   25353.91668981  .00096241  00000+0  15507-2 0  9995",
        "tle_line2": "2 66838  69.9993 178.7169 0002928 271.2962 271.1849 15.52475078  4052"
      },
      "geometry": {
        "type": "Point",
        "coordinates": [
          -4.112005320621419,
          5.339521940196552
        ]
      }
    },
    {
      "type": "Feature",
      "properties": {
        "norad_id": 66839,
        "name": "STARLINK-35717",
        "group": "last-30-days",
        "lat": 7.142914863287619,
        "lon": -4.7752443338734265,
        "alt_km": 411.06045634277234,
        "timestamp": "2025-12-20T05:41:48.743309+00:00",
        "meta_object_name": "STARLINK-35717",
        "meta_object_id": "2025-280U",
        "meta_epoch": "2025-12-19T22:00:01.999584",
        "meta_mean_motion": 15.52473306,
        "meta_eccentricity": 0.00030355,
        "meta_inclination": 69.9992,
        "meta_ra_of_asc_node": 178.719,
        "meta_arg_of_pericenter": 269.2891,
        "meta_mean_anomaly": 271.2749,
        "meta_ephemeris_type": 0,
        "meta_classification_type": "U",
        "meta_norad_cat_id": 66839,
        "meta_element_set_no": 999,
        "meta_rev_at_epoch": 405,
        "meta_bstar": 0.001567271,
        "meta_mean_motion_dot": 0.00097278,
        "meta_mean_motion_ddot": 0,
        "tle_line1": "1 66839U 25280U   25353.91668981  .00097278  00000+0  15673-2 0  9991",
        "tle_line2": "2 66839  69.9992 178.7190 0003035 269.2891 271.2749 15.52473306  4056"
      },
      "geometry": {
        "type": "Point",
        "coordinates": [
          -4.7752443338734265,
          7.142914863287619
        ]
      }
    },
    {
      "type": "Feature",
      "properties": {
        "norad_id": 66840,
        "name": "STARLINK-35837",
        "group": "last-30-days",
        "lat": 3.5412687047770683,
        "lon": -3.4547160438614752,
        "alt_km": 411.4774411808057,
        "timestamp": "2025-12-20T05:41:48.743319+00:00",
        "meta_object_name": "STARLINK-35837",
        "meta_object_id": "2025-280V",
        "meta_epoch": "2025-12-19T22:00:01.999584",
        "meta_mean_motion": 15.52474347,
        "meta_eccentricity": 0.00028986,
        "meta_inclination": 69.9994,
        "meta_ra_of_asc_node": 178.7149,
        "meta_arg_of_pericenter": 270.9341,
        "meta_mean_anomaly": 273.4611,
        "meta_ephemeris_type": 0,
        "meta_classification_type": "U",
        "meta_norad_cat_id": 66840,
        "meta_element_set_no": 999,
        "meta_rev_at_epoch": 405,
        "meta_bstar": 0.0015689404,
        "meta_mean_motion_dot": 0.00097385,
        "meta_mean_motion_ddot": 0,
        "tle_line1": "1 66840U 25280V   25353.91668981  .00097385  00000+0  15689-2 0  9999",
        "tle_line2": "2 66840  69.9994 178.7149 0002898 270.9341 273.4611 15.52474347  4057"
      },
      "geometry": {
        "type": "Point",
        "coordinates": [
          -3.4547160438614752,
          3.5412687047770683
        ]
      }
    }
  ]
}